start=new Date('2023-03-20T00:00:00.000Z').valueOf();
sats=[{"LAUNCH_DATE":"2022-06-17","MEAN_ELEMENT_THEORY":"SGP4","DECAY_DATE":null,"ARG_OF_PERICENTER":"103.3619","EPOCH":"2023-03-19T15:15:13.995360","FILE":"3865032","APOAPSIS":"540.645","ELEMENT_SET_NO":"999","OBJECT_TYPE":"PAYLOAD","TLE_LINE2":"2 52869  53.2166 209.6041 0001246 103.3619 256.7512 15.08827814 42595","MEAN_MOTION":"15.08827814","RA_OF_ASC_NODE":"209.6041","CENTER_NAME":"EARTH","PERIAPSIS":"538.921","INCLINATION":"53.2166","TLE_LINE1":"1 52869U 22062AR  23078.63557865  .00017118  00000-0  10914-2 0  9992","BSTAR":"0.00109140000000","MEAN_MOTION_DDOT":"0.0000000000000","REV_AT_EPOCH":"4259","GP_ID":"228420080","REF_FRAME":"TEME","TIME_SYSTEM":"UTC","MEAN_ANOMALY":"256.7512","OBJECT_ID":"2022-062AR","SITE":"AFETR","COUNTRY_CODE":"US","ECCENTRICITY":"0.00012460","MEAN_MOTION_DOT":"0.00017118","OBJECT_NAME":"STARLINK-4266","NORAD_CAT_ID":"52869","SEMIMAJOR_AXIS":"6917.918","PERIOD":"95.438","EPHEMERIS_TYPE":"0","RCS_SIZE":"LARGE","CLASSIFICATION_TYPE":"U"},{"MEAN_ANOMALY":"266.2453","OBJECT_ID":"2022-062AS","TIME_SYSTEM":"UTC","REF_FRAME":"TEME","REV_AT_EPOCH":"4199","GP_ID":"228477968","ECCENTRICITY":"0.00013660","SITE":"AFETR","COUNTRY_CODE":"US","RCS_SIZE":"LARGE","CLASSIFICATION_TYPE":"U","PERIOD":"95.436","EPHEMERIS_TYPE":"0","SEMIMAJOR_AXIS":"6917.825","OBJECT_NAME":"STARLINK-4195","MEAN_MOTION_DOT":"0.00006970","NORAD_CAT_ID":"52870","DECAY_DATE":null,"ARG_OF_PERICENTER":"93.8695","EPOCH":"2023-03-19T18:40:33.555360","MEAN_ELEMENT_THEORY":"SGP4","LAUNCH_DATE":"2022-06-17","ELEMENT_SET_NO":"999","APOAPSIS":"540.635","FILE":"3865354","MEAN_MOTION":"15.08858080","TLE_LINE2":"2 52870  53.2145 218.9670 0001366  93.8695 266.2453 15.08858080 41997","OBJECT_TYPE":"PAYLOAD","BSTAR":"0.00045537000000","MEAN_MOTION_DDOT":"0.0000000000000","TLE_LINE1":"1 52870U 22062AS  23078.77816615  .00006970  00000-0  45537-3 0  9994","CENTER_NAME":"EARTH","PERIAPSIS":"538.745","INCLINATION":"53.2145","RA_OF_ASC_NODE":"218.9670"},{"EPHEMERIS_TYPE":"0","PERIOD":"95.436","CLASSIFICATION_TYPE":"U","RCS_SIZE":"LARGE","MEAN_MOTION_DOT":"0.00013357","NORAD_CAT_ID":"52871","OBJECT_NAME":"STARLINK-4207","SEMIMAJOR_AXIS":"6917.821","ECCENTRICITY":"0.00012630","COUNTRY_CODE":"US","SITE":"AFETR","TIME_SYSTEM":"UTC","OBJECT_ID":"2022-062AT","MEAN_ANOMALY":"280.5472","GP_ID":"228478717","REV_AT_EPOCH":"4212","REF_FRAME":"TEME","TLE_LINE1":"1 52871U 22062AT  23078.75700765  .00013357  00000-0  85526-3 0  9990","BSTAR":"0.00085526000000","MEAN_MOTION_DDOT":"0.0000000000000","RA_OF_ASC_NODE":"209.0605","INCLINATION":"53.2159","PERIAPSIS":"538.812","CENTER_NAME":"EARTH","MEAN_MOTION":"15.08859398","OBJECT_TYPE":"PAYLOAD","TLE_LINE2":"2 52871  53.2159 209.0605 0001263  79.5663 280.5472 15.08859398 42123","ELEMENT_SET_NO":"999","FILE":"3865354","APOAPSIS":"540.560","EPOCH":"2023-03-19T18:10:05.460960","DECAY_DATE":null,"ARG_OF_PERICENTER":"79.5663","MEAN_ELEMENT_THEORY":"SGP4","LAUNCH_DATE":"2022-06-17"},{"CLASSIFICATION_TYPE":"U","RCS_SIZE":"LARGE","EPHEMERIS_TYPE":"0","PERIOD":"95.436","SEMIMAJOR_AXIS":"6917.820","NORAD_CAT_ID":"52872","MEAN_MOTION_DOT":"0.00005357","OBJECT_NAME":"STARLINK-4213","ECCENTRICITY":"0.00015040","COUNTRY_CODE":"US","SITE":"AFETR","OBJECT_ID":"2022-062AU","MEAN_ANOMALY":"258.4452","TIME_SYSTEM":"UTC","REF_FRAME":"TEME","REV_AT_EPOCH":"4212","GP_ID":"228477467","BSTAR":"0.00035425000000","MEAN_MOTION_DDOT":"0.0000000000000","TLE_LINE1":"1 52872U 22062AU  23078.76436467  .00005357  00000-0  35425-3 0  9991","INCLINATION":"53.2184","PERIAPSIS":"538.644","CENTER_NAME":"EARTH","RA_OF_ASC_NODE":"209.0267","MEAN_MOTION":"15.08859802","OBJECT_TYPE":"PAYLOAD","TLE_LINE2":"2 52872  53.2184 209.0267 0001504 101.6709 258.4452 15.08859802 42124","ELEMENT_SET_NO":"999","APOAPSIS":"540.725","FILE":"3865354","EPOCH":"2023-03-19T18:20:41.107488","DECAY_DATE":null,"ARG_OF_PERICENTER":"101.6709","LAUNCH_DATE":"2022-06-17","MEAN_ELEMENT_THEORY":"SGP4"},{"MEAN_MOTION":"15.08859430","TLE_LINE2":"2 52873  53.2144 209.0941 0001094  71.1360 288.9751 15.08859430 42125","OBJECT_TYPE":"PAYLOAD","TLE_LINE1":"1 52873U 22062AV  23078.74965119  .00018279  00000-0  11630-2 0  9999","MEAN_MOTION_DDOT":"0.0000000000000","BSTAR":"0.00116300000000","RA_OF_ASC_NODE":"209.0941","INCLINATION":"53.2144","CENTER_NAME":"EARTH","PERIAPSIS":"538.929","EPOCH":"2023-03-19T17:59:29.862816","ARG_OF_PERICENTER":"71.1360","DECAY_DATE":null,"MEAN_ELEMENT_THEORY":"SGP4","LAUNCH_DATE":"2022-06-17","ELEMENT_SET_NO":"999","FILE":"3865354","APOAPSIS":"540.443","ECCENTRICITY":"0.00010940","COUNTRY_CODE":"US","SITE":"AFETR","EPHEMERIS_TYPE":"0","PERIOD":"95.436","CLASSIFICATION_TYPE":"U","RCS_SIZE":"LARGE","MEAN_MOTION_DOT":"0.00018279","OBJECT_NAME":"STARLINK-4211","NORAD_CAT_ID":"52873","SEMIMAJOR_AXIS":"6917.821","TIME_SYSTEM":"UTC","OBJECT_ID":"2022-062AV","MEAN_ANOMALY":"288.9751","GP_ID":"228477717","REV_AT_EPOCH":"4212","REF_FRAME":"TEME"},{"APOAPSIS":"540.712","FILE":"3865354","ELEMENT_SET_NO":"999","MEAN_ELEMENT_THEORY":"SGP4","LAUNCH_DATE":"2022-06-17","ARG_OF_PERICENTER":"93.1461","DECAY_DATE":null,"EPOCH":"2023-03-19T15:04:38.030016","PERIAPSIS":"538.776","CENTER_NAME":"EARTH","INCLINATION":"53.2169","RA_OF_ASC_NODE":"209.6349","BSTAR":"-0.00005218100000","MEAN_MOTION_DDOT":"0.0000000000000","TLE_LINE1":"1 52874U 22062AW  23078.62821794 -.00001118  00000-0 -52181-4 0  9991","TLE_LINE2":"2 52874  53.2169 209.6349 0001399  93.1461 266.9691 15.08840416 42106","OBJECT_TYPE":"PAYLOAD","MEAN_MOTION":"15.08840416","REF_FRAME":"TEME","REV_AT_EPOCH":"4210","GP_ID":"228478469","MEAN_ANOMALY":"266.9691","OBJECT_ID":"2022-062AW","TIME_SYSTEM":"UTC","SEMIMAJOR_AXIS":"6917.879","NORAD_CAT_ID":"52874","OBJECT_NAME":"STARLINK-4210","MEAN_MOTION_DOT":"-0.00001118","RCS_SIZE":"LARGE","CLASSIFICATION_TYPE":"U","PERIOD":"95.438","EPHEMERIS_TYPE":"0","SITE":"AFETR","COUNTRY_CODE":"US","ECCENTRICITY":"0.00013990"},{"MEAN_MOTION":"15.08859363","OBJECT_TYPE":"PAYLOAD","TLE_LINE2":"2 52875  53.2160 209.4094 0001101  95.1958 264.9160 15.08859363 42118","TLE_LINE1":"1 52875U 22062AX  23078.67972724  .00005177  00000-0  34296-3 0  9990","MEAN_MOTION_DDOT":"0.0000000000000","BSTAR":"0.00034296000000","RA_OF_ASC_NODE":"209.4094","PERIAPSIS":"538.925","CENTER_NAME":"EARTH","INCLINATION":"53.2160","DECAY_DATE":null,"ARG_OF_PERICENTER":"95.1958","EPOCH":"2023-03-19T16:18:48.433536","LAUNCH_DATE":"2022-06-17","MEAN_ELEMENT_THEORY":"SGP4","ELEMENT_SET_NO":"999","FILE":"3865354","APOAPSIS":"540.448","ECCENTRICITY":"0.00011010","SITE":"AFETR","COUNTRY_CODE":"US","PERIOD":"95.436","EPHEMERIS_TYPE":"0","RCS_SIZE":"LARGE","CLASSIFICATION_TYPE":"U","NORAD_CAT_ID":"52875","OBJECT_NAME":"STARLINK-4193","MEAN_MOTION_DOT":"0.00005177","SEMIMAJOR_AXIS":"6917.821","TIME_SYSTEM":"UTC","MEAN_ANOMALY":"264.9160","OBJECT_ID":"2022-062AX","REV_AT_EPOCH":"4211","GP_ID":"228478217","REF_FRAME":"TEME"},{"TLE_LINE2":"2 52876  53.2153 209.0763 0001249  83.6629 276.4505 15.08850217 42121","OBJECT_TYPE":"PAYLOAD","MEAN_MOTION":"15.08850217","CENTER_NAME":"EARTH","PERIAPSIS":"538.850","INCLINATION":"53.2153","RA_OF_ASC_NODE":"209.0763","BSTAR":"0.00020119000000","MEAN_MOTION_DDOT":"0.0000000000000","TLE_LINE1":"1 52876U 22062AY  23078.75332969  .00002916  00000-0  20119-3 0  9998","LAUNCH_DATE":"2022-06-17","MEAN_ELEMENT_THEORY":"SGP4","DECAY_DATE":null,"ARG_OF_PERICENTER":"83.6629","EPOCH":"2023-03-19T18:04:47.685216","APOAPSIS":"540.578","FILE":"3865354","ELEMENT_SET_NO":"999","SITE":"AFETR","COUNTRY_CODE":"US","ECCENTRICITY":"0.00012490","SEMIMAJOR_AXIS":"6917.849","MEAN_MOTION_DOT":"0.00002916","NORAD_CAT_ID":"52876","OBJECT_NAME":"STARLINK-4200","RCS_SIZE":"LARGE","CLASSIFICATION_TYPE":"U","PERIOD":"95.437","EPHEMERIS_TYPE":"0","REF_FRAME":"TEME","REV_AT_EPOCH":"4212","GP_ID":"228476967","MEAN_ANOMALY":"276.4505","OBJECT_ID":"2022-062AY","TIME_SYSTEM":"UTC"},{"GP_ID":"228477217","REV_AT_EPOCH":"4213","REF_FRAME":"TEME","TIME_SYSTEM":"UTC","OBJECT_ID":"2022-062AZ","MEAN_ANOMALY":"274.2079","COUNTRY_CODE":"US","SITE":"AFETR","ECCENTRICITY":"0.00012680","OBJECT_NAME":"STARLINK-4214","NORAD_CAT_ID":"52877","MEAN_MOTION_DOT":"0.00012112","SEMIMAJOR_AXIS":"6917.811","EPHEMERIS_TYPE":"0","PERIOD":"95.436","CLASSIFICATION_TYPE":"U","RCS_SIZE":"LARGE","LAUNCH_DATE":"2022-06-17","MEAN_ELEMENT_THEORY":"SGP4","EPOCH":"2023-03-19T18:52:28.875648","DECAY_DATE":null,"ARG_OF_PERICENTER":"85.9058","FILE":"3865354","APOAPSIS":"540.553","ELEMENT_SET_NO":"999","OBJECT_TYPE":"PAYLOAD","TLE_LINE2":"2 52877  53.2165 208.9292 0001268  85.9058 274.2079 15.08862692 42135","MEAN_MOTION":"15.08862692","RA_OF_ASC_NODE":"208.9292","INCLINATION":"53.2165","PERIAPSIS":"538.799","CENTER_NAME":"EARTH","TLE_LINE1":"1 52877U 22062AZ  23078.78644532  .00012112  00000-0  77731-3 0  9995","BSTAR":"0.00077731000000","MEAN_MOTION_DDOT":"0.0000000000000"},{"SITE":"AFETR","COUNTRY_CODE":"US","ECCENTRICITY":"0.00014030","MEAN_MOTION_DOT":"0.00005465","OBJECT_NAME":"STARLINK-4171","NORAD_CAT_ID":"52878","SEMIMAJOR_AXIS":"6917.864","PERIOD":"95.437","EPHEMERIS_TYPE":"0","RCS_SIZE":"LARGE","CLASSIFICATION_TYPE":"U","GP_ID":"228477969","REV_AT_EPOCH":"4211","REF_FRAME":"TEME","TIME_SYSTEM":"UTC","MEAN_ANOMALY":"282.0036","OBJECT_ID":"2022-062BA","TLE_LINE2":"2 52878  53.2172 209.4229 0001403  78.1114 282.0036 15.08845270 42119","OBJECT_TYPE":"PAYLOAD","MEAN_MOTION":"15.08845270","RA_OF_ASC_NODE":"209.4229","CENTER_NAME":"EARTH","PERIAPSIS":"538.759","INCLINATION":"53.2172","TLE_LINE1":"1 52878U 22062BA  23078.67605251  .00005465  00000-0  36113-3 0  9991","BSTAR":"0.00036113000000","MEAN_MOTION_DDOT":"0.0000000000000","MEAN_ELEMENT_THEORY":"SGP4","LAUNCH_DATE":"2022-06-17","DECAY_DATE":null,"ARG_OF_PERICENTER":"78.1114","EPOCH":"2023-03-19T16:13:30.936864","FILE":"3865354","APOAPSIS":"540.700","ELEMENT_SET_NO":"999"}];
